STARLINK-1651
1 16366C 20062AU  21326.15401971 -.00017233  00000-0 -11546-2 0  3268
2 16366  53.0510 173.0521 0001727  80.6879 224.8709 15.06415940    13
